QIANFAN-57              
1 62787U 25016C   25266.02077060  .00000069  00000+0  87620-4 0  9998
2 62787  88.9766 111.5359 0002316  65.2086 294.9306 13.50965540 36303
QIANFAN-58              
1 62788U 25016D   25270.58390588  .00000055  00000+0  65926-4 0  9998
2 62788  88.9729 110.9198 0013077 196.7741 163.2979 13.50972544 36969
QIANFAN-59              
1 62789U 25016E   25269.20133272  .00000041  00000+0  44248-4 0  9990
2 62789  88.9754 111.1182 0013222 205.2457 154.8050 13.50971629 36774
QIANFAN-60              
1 62790U 25016F   25270.64508884  .00000039  00000+0  40355-4 0  9999
2 62790  88.9736 110.9558 0014634 197.8772 162.1867 13.52524016 36958
QIANFAN-61              
1 62791U 25016G   25270.60031826  .00000049  00000+0  57581-4 0  9993
2 62791  88.9802 111.0707 0013924 196.7581 163.3112 13.50972180 36962
QIANFAN-62              
1 62792U 25016H   25270.60447916  .00000065  00000+0  82649-4 0  9996
2 62792  88.9748 110.9798 0015300 197.6914 162.3706 13.50966213 36957
QIANFAN-63              
1 62793U 25016J   25266.77739156  .00000086  00000+0  11768-3 0  9996
2 62793  88.9760 111.3217 0014609 215.7404 144.2770 13.49732499 36472
QIANFAN-64              
1 62794U 25016K   25270.59620638  .00000029  00000+0  26096-4 0  9994
2 62794  88.9741 110.9114 0013348 195.0478 165.0278 13.50970637 36983
